[{"OBJECT_NAME":"STARLINK-34309","OBJECT_ID":"2025-112X","EPOCH":"2026-03-09T16:59:01.941504","MEAN_MOTION":15.05646691,"ECCENTRICITY":0.00014357,"INCLINATION":97.6025,"RA_OF_ASC_NODE":121.5846,"ARG_OF_PERICENTER":104.8075,"MEAN_ANOMALY":255.3311,"EPHEMERIS_TYPE":0,"CLASSIFICATION_TYPE":"U","NORAD_CAT_ID":64167,"ELEMENT_SET_NO":999,"REV_AT_EPOCH":4331,"BSTAR":0.0001469117,"MEAN_MOTION_DOT":2.059e-5,"MEAN_MOTION_DDOT":0},{"OBJECT_NAME":"LEASAT 4 PKM","OBJECT_ID":"1985-076F","EPOCH":"2026-03-08T11:39:08.744832","MEAN_MOTION":5.53350133,"ECCENTRICITY":0.50112506,"INCLINATION":27.3727,"RA_OF_ASC_NODE":235.1518,"ARG_OF_PERICENTER":95.2088,"MEAN_ANOMALY":321.4262,"EPHEMERIS_TYPE":0,"CLASSIFICATION_TYPE":"U","NORAD_CAT_ID":16001,"ELEMENT_SET_NO":999,"REV_AT_EPOCH":78664,"BSTAR":0.001658351,"MEAN_MOTION_DOT":4.59e-5,"MEAN_MOTION_DDOT":0}]
